{"type": "FeatureCollection", "features": [ {"type": "Feature", "properties": {"norad_id": 30224, "name": "FENGYUN 1C DEB", "group": "fengyun-1c-debris", "lat": -74.1318417517014, "lon": -175.29346509969363, "alt_km": 879.3842086870645, "timestamp": "2025-12-27T16:33:30.497293+00:00", "meta": {"OBJECT_NAME": "FENGYUN 1C DEB", "OBJECT_ID": "1999-025WH", "EPOCH": "2025-12-27T01:45:29.027232", "MEAN_MOTION": 13.89879635, "ECCENTRICITY": 0.01109264, "INCLINATION": 99.4824, "RA_OF_ASC_NODE": 40.0904, "ARG_OF_PERICENTER": 304.6914, "MEAN_ANOMALY": 109.4408, "EPHEMERIS_TYPE": 0, "CLASSIFICATION_TYPE": "U", "NORAD_CAT_ID": 30224, "ELEMENT_SET_NO": 999, "REV_AT_EPOCH": 95940, "BSTAR": 0.0003666331, "MEAN_MOTION_DOT": 4.27e-06, "MEAN_MOTION_DDOT": 0}, "tle": {"line1": "1 30224U 99025WH  25361.07325263  .00000427  00000+0  36663-3 0  9990", "line2": "2 30224  99.4824  40.0904 0110926 304.6914 109.4408 13.89879635959404"}}, "geometry": {"type": "Point", "coordinates": [-175.29346509969363, -74.1318417517014]}}, {"type": "Feature", "properties": {"norad_id": 30225, "name": "FENGYUN 1C DEB", "group": "fengyun-1c-debris", "lat": -13.795696581615854, "lon": 30.1700287276886, "alt_km": 806.607650701394, "timestamp": "2025-12-27T16:33:30.497302+00:00", "meta": {"OBJECT_NAME": "FENGYUN 1C DEB", "OBJECT_ID": "1999-025WJ", "EPOCH": "2025-12-26T01:54:49.618080", "MEAN_MOTION": 14.15193245, "ECCENTRICITY": 0.01001573, "INCLINATION": 98.6586, "RA_OF_ASC_NODE": 26.4626, "ARG_OF_PERICENTER": 48.0837, "MEAN_ANOMALY": 20.1881, "EPHEMERIS_TYPE": 0, "CLASSIFICATION_TYPE": "U", "NORAD_CAT_ID": 30225, "ELEMENT_SET_NO": 999, "REV_AT_EPOCH": 97725, "BSTAR": 0.00017129298, "MEAN_MOTION_DOT": 3.07e-06, "MEAN_MOTION_DDOT": 0}, "tle": {"line1": "1 30225U 99025WJ  25360.07974095  .00000307  00000+0  17129-3 0  9996", "line2": "2 30225  98.6586  26.4626 0100157  48.0837  20.1881 14.15193245977251"}}, "geometry": {"type": "Point", "coordinates": [30.1700287276886, -13.795696581615854]}}, {"type": "Feature", "properties": {"norad_id": 30229, "name": "FENGYUN 1C DEB", "group": "fengyun-1c-debris", "lat": 28.923126338702353, "lon": -112.2245946726521, "alt_km": 712.9945436207072, "timestamp": "2025-12-27T16:33:30.497312+00:00", "meta": {"OBJECT_NAME": "FENGYUN 1C DEB", "OBJECT_ID": "1999-025WN", "EPOCH": "2025-12-27T02:59:53.495808", "MEAN_MOTION": 14.60786406, "ECCENTRICITY": 0.00367713, "INCLINATION": 99.061, "RA_OF_ASC_NODE": 62.0989, "ARG_OF_PERICENTER": 356.0222, "MEAN_ANOMALY": 64.7923, "EPHEMERIS_TYPE": 0, "CLASSIFICATION_TYPE": "U", "NORAD_CAT_ID": 30229, "ELEMENT_SET_NO": 999, "REV_AT_EPOCH": 99136, "BSTAR": 0.0021239088, "MEAN_MOTION_DOT": 0.00010425, "MEAN_MOTION_DDOT": 0}, "tle": {"line1": "1 30229U 99025WN  25361.12492472  .00010425  00000+0  21239-2 0  9999", "line2": "2 30229  99.0610  62.0989 0036771 356.0222  64.7923 14.60786406991362"}}, "geometry": {"type": "Point", "coordinates": [-112.2245946726521, 28.923126338702353]}}, {"type": "Feature", "properties": {"norad_id": 30231, "name": "FENGYUN 1C DEB", "group": "fengyun-1c-debris", "lat": -76.94361574533775, "lon": -175.76222462893577, "alt_km": 854.0703522842541, "timestamp": "2025-12-27T16:33:30.497322+00:00", "meta": {"OBJECT_NAME": "FENGYUN 1C DEB", "OBJECT_ID": "1999-025WQ", "EPOCH": "2025-12-27T02:02:23.980992", "MEAN_MOTION": 14.11673651, "ECCENTRICITY": 0.01278043, "INCLINATION": 98.804, "RA_OF_ASC_NODE": 45.5786, "ARG_OF_PERICENTER": 348.4784, "MEAN_ANOMALY": 80.6965, "EPHEMERIS_TYPE": 0, "CLASSIFICATION_TYPE": "U", "NORAD_CAT_ID": 30231, "ELEMENT_SET_NO": 999, "REV_AT_EPOCH": 97222, "BSTAR": 0.00053475898, "MEAN_MOTION_DOT": 1.007e-05, "MEAN_MOTION_DDOT": 0}, "tle": {"line1": "1 30231U 99025WQ  25361.08499978  .00001007  00000+0  53476-3 0  9990", "line2": "2 30231  98.8040  45.5786 0127804 348.4784  80.6965 14.11673651972226"}}, "geometry": {"type": "Point", "coordinates": [-175.76222462893577, -76.94361574533775]}}, {"type": "Feature", "properties": {"norad_id": 30232, "name": "FENGYUN 1C DEB", "group": "fengyun-1c-debris", "lat": 61.67253476050944, "lon": 39.15806087908501, "alt_km": 769.8764772167688, "timestamp": "2025-12-27T16:33:30.497332+00:00", "meta": {"OBJECT_NAME": "FENGYUN 1C DEB", "OBJECT_ID": "1999-025WR", "EPOCH": "2025-12-27T00:21:01.531584", "MEAN_MOTION": 14.63716537, "ECCENTRICITY": 0.01350544, "INCLINATION": 98.6927, "RA_OF_ASC_NODE": 201.9581, "ARG_OF_PERICENTER": 305.5592, "MEAN_ANOMALY": 214.7625, "EPHEMERIS_TYPE": 0, "CLASSIFICATION_TYPE": "U", "NORAD_CAT_ID": 30232, "ELEMENT_SET_NO": 999, "REV_AT_EPOCH": 99960, "BSTAR": 0.0010416134, "MEAN_MOTION_DOT": 6.135e-05, "MEAN_MOTION_DDOT": 0}, "tle": {"line1": "1 30232U 99025WR  25361.01460106  .00006135  00000+0  10416-2 0  9998", "line2": "2 30232  98.6927 201.9581 0135054 305.5592 214.7625 14.63716537999609"}}, "geometry": {"type": "Point", "coordinates": [39.15806087908501, 61.67253476050944]}}, {"type": "Feature", "properties": {"norad_id": 30234, "name": "FENGYUN 1C DEB", "group": "fengyun-1c-debris", "lat": 24.237963727121993, "lon": 8.106257408459681, "alt_km": 787.6853693768207, "timestamp": "2025-12-27T16:33:30.497342+00:00", "meta": {"OBJECT_NAME": "FENGYUN 1C DEB", "OBJECT_ID": "1999-025WT", "EPOCH": "2025-12-27T12:04:33.564864", "MEAN_MOTION": 14.16885008, "ECCENTRICITY": 0.006655, "INCLINATION": 98.6334, "RA_OF_ASC_NODE": 11.8471, "ARG_OF_PERICENTER": 33.2546, "MEAN_ANOMALY": 119.3515, "EPHEMERIS_TYPE": 0, "CLASSIFICATION_TYPE": "U", "NORAD_CAT_ID": 30234, "ELEMENT_SET_NO": 999, "REV_AT_EPOCH": 97665, "BSTAR": 0.00037241, "MEAN_MOTION_DOT": 7.21e-06, "MEAN_MOTION_DDOT": 0}, "tle": {"line1": "1 30234U 99025WT  25361.50316626  .00000721  00000+0  37241-3 0  9992", "line2": "2 30234  98.6334  11.8471 0066550  33.2546 119.3515 14.16885008976653"}}, "geometry": {"type": "Point", "coordinates": [8.106257408459681, 24.237963727121993]}}, {"type": "Feature", "properties": {"norad_id": 30235, "name": "FENGYUN 1C DEB", "group": "fengyun-1c-debris", "lat": -80.78749854097255, "lon": 91.1278008858193, "alt_km": 843.58112663668, "timestamp": "2025-12-27T16:33:30.497352+00:00", "meta": {"OBJECT_NAME": "FENGYUN 1C DEB", "OBJECT_ID": "1999-025WU", "EPOCH": "2025-12-27T12:26:50.736192", "MEAN_MOTION": 14.08797176, "ECCENTRICITY": 0.0153924, "INCLINATION": 98.7488, "RA_OF_ASC_NODE": 19.2566, "ARG_OF_PERICENTER": 196.6547, "MEAN_ANOMALY": 286.26, "EPHEMERIS_TYPE": 0, "CLASSIFICATION_TYPE": "U", "NORAD_CAT_ID": 30235, "ELEMENT_SET_NO": 999, "REV_AT_EPOCH": 97101, "BSTAR": 0.00040145, "MEAN_MOTION_DOT": 7.3e-06, "MEAN_MOTION_DDOT": 0}, "tle": {"line1": "1 30235U 99025WU  25361.51864278  .00000730  00000+0  40145-3 0  9992", "line2": "2 30235  98.7488  19.2566 0153924 196.6547 286.2600 14.08797176971012"}}, "geometry": {"type": "Point", "coordinates": [91.1278008858193, -80.78749854097255]}}, {"type": "Feature", "properties": {"norad_id": 30237, "name": "FENGYUN 1C DEB", "group": "fengyun-1c-debris", "lat": 43.71796445137319, "lon": -66.54001968742763, "alt_km": 757.3035102064232, "timestamp": "2025-12-27T16:33:30.497362+00:00", "meta": {"OBJECT_NAME": "FENGYUN 1C DEB", "OBJECT_ID": "1999-025WW", "EPOCH": "2025-12-27T06:11:02.275872", "MEAN_MOTION": 14.41099427, "ECCENTRICITY": 0.0015277, "INCLINATION": 98.8244, "RA_OF_ASC_NODE": 104.4714, "ARG_OF_PERICENTER": 261.3236, "MEAN_ANOMALY": 153.0377, "EPHEMERIS_TYPE": 0, "CLASSIFICATION_TYPE": "U", "NORAD_CAT_ID": 30237, "ELEMENT_SET_NO": 999, "REV_AT_EPOCH": 97907, "BSTAR": 0.0026432, "MEAN_MOTION_DOT": 8.487e-05, "MEAN_MOTION_DDOT": 0}, "tle": {"line1": "1 30237U 99025WW  25361.25766523  .00008487  00000+0  26432-2 0  9998", "line2": "2 30237  98.8244 104.4714 0015277 261.3236 153.0377 14.41099427979077"}}, "geometry": {"type": "Point", "coordinates": [-66.54001968742763, 43.71796445137319]}}, {"type": "Feature", "properties": {"norad_id": 30239, "name": "FENGYUN 1C DEB", "group": "fengyun-1c-debris", "lat": -70.61432492545147, "lon": -63.383965010764285, "alt_km": 2235.3369942769887, "timestamp": "2025-12-27T16:33:30.497372+00:00", "meta": {"OBJECT_NAME": "FENGYUN 1C DEB", "OBJECT_ID": "1999-025WY", "EPOCH": "2025-12-27T08:40:01.405632", "MEAN_MOTION": 11.38353876, "ECCENTRICITY": 0.1355424, "INCLINATION": 99.556, "RA_OF_ASC_NODE": 144.9945, "ARG_OF_PERICENTER": 4.29, "MEAN_ANOMALY": 356.848, "EPHEMERIS_TYPE": 0, "CLASSIFICATION_TYPE": "U", "NORAD_CAT_ID": 30239, "ELEMENT_SET_NO": 999, "REV_AT_EPOCH": 54701, "BSTAR": 0.028533, "MEAN_MOTION_DOT": 9.843e-05, "MEAN_MOTION_DDOT": 0}, "tle": {"line1": "1 30239U 99025WY  25361.36112738  .00009843  00000+0  28533-1 0  9995", "line2": "2 30239  99.5560 144.9945 1355424   4.2900 356.8480 11.38353876547014"}}, "geometry": {"type": "Point", "coordinates": [-63.383965010764285, -70.61432492545147]}}, {"type": "Feature", "properties": {"norad_id": 30241, "name": "FENGYUN 1C DEB", "group": "fengyun-1c-debris", "lat": 3.0783258511896703, "lon": -44.688300225007595, "alt_km": 940.5156430499528, "timestamp": "2025-12-27T16:33:30.497382+00:00", "meta": {"OBJECT_NAME": "FENGYUN 1C DEB", "OBJECT_ID": "1999-025XA", "EPOCH": "2025-12-27T07:28:41.776896", "MEAN_MOTION": 14.09561101, "ECCENTRICITY": 0.0146431, "INCLINATION": 99.1491, "RA_OF_ASC_NODE": 134.4307, "ARG_OF_PERICENTER": 40.546, "MEAN_ANOMALY": 16.2655, "EPHEMERIS_TYPE": 0, "CLASSIFICATION_TYPE": "U", "NORAD_CAT_ID": 30241, "ELEMENT_SET_NO": 999, "REV_AT_EPOCH": 97117, "BSTAR": 0.00030288, "MEAN_MOTION_DOT": 5.4e-06, "MEAN_MOTION_DDOT": 0}, "tle": {"line1": "1 30241U 99025XA  25361.31159464  .00000540  00000+0  30288-3 0  9997", "line2": "2 30241  99.1491 134.4307 0146431  40.5460  16.2655 14.09561101971173"}}, "geometry": {"type": "Point", "coordinates": [-44.688300225007595, 3.0783258511896703]}}]}